CCSDS_OMM_VERS = 2.0
CREATION_DATE  = 
ORIGINATOR     = 

OBJECT_NAME    = STARLINK-36529
OBJECT_ID      = 2026-008N
CENTER_NAME    = EARTH
REF_FRAME      = TEME
TIME_SYSTEM    = UTC
MEAN_ELEMENT_THEORY = SGP/SGP4

EPOCH          = 2026-02-12T04:00:03.000096
MEAN_MOTION    = 15.44612960
ECCENTRICITY   = .0001278
INCLINATION    = 43.0000
RA_OF_ASC_NODE = 349.8411
ARG_OF_PERICENTER = 259.6066
MEAN_ANOMALY   = 90.4457

EPHEMERIS_TYPE = 0
CLASSIFICATION_TYPE = U
NORAD_CAT_ID   = 67457
ELEMENT_SET_NO = 999
REV_AT_EPOCH   = 569
BSTAR          = -.48014E-1
MEAN_MOTION_DOT = -.2035519E-1
MEAN_MOTION_DDOT = 0

CCSDS_OMM_VERS = 2.0
CREATION_DATE  = 
ORIGINATOR     = 

OBJECT_NAME    = STARLINK-36528
OBJECT_ID      = 2026-008P
CENTER_NAME    = EARTH
REF_FRAME      = TEME
TIME_SYSTEM    = UTC
MEAN_ELEMENT_THEORY = SGP/SGP4

EPOCH          = 2026-02-12T04:00:03.000096
MEAN_MOTION    = 15.48817562
ECCENTRICITY   = .0001012
INCLINATION    = 42.9998
RA_OF_ASC_NODE = 349.4841
ARG_OF_PERICENTER = 275.6352
MEAN_ANOMALY   = 219.2910

EPHEMERIS_TYPE = 0
CLASSIFICATION_TYPE = U
NORAD_CAT_ID   = 67458
ELEMENT_SET_NO = 999
REV_AT_EPOCH   = 571
BSTAR          = -.42229E-1
MEAN_MOTION_DOT = -.2069298E-1
MEAN_MOTION_DDOT = 0

CCSDS_OMM_VERS = 2.0
CREATION_DATE  = 
ORIGINATOR     = 

OBJECT_NAME    = STARLINK-36546
OBJECT_ID      = 2026-008Q
CENTER_NAME    = EARTH
REF_FRAME      = TEME
TIME_SYSTEM    = UTC
MEAN_ELEMENT_THEORY = SGP/SGP4

EPOCH          = 2026-02-12T04:00:03.000096
MEAN_MOTION    = 15.40013418
ECCENTRICITY   = .0001144
INCLINATION    = 43.0006
RA_OF_ASC_NODE = 349.8983
ARG_OF_PERICENTER = 262.5792
MEAN_ANOMALY   = 63.9200

EPHEMERIS_TYPE = 0
CLASSIFICATION_TYPE = U
NORAD_CAT_ID   = 67459
ELEMENT_SET_NO = 999
REV_AT_EPOCH   = 569
BSTAR          = -.56133E-1
MEAN_MOTION_DOT = -.2036094E-1
MEAN_MOTION_DDOT = 0

CCSDS_OMM_VERS = 2.0
CREATION_DATE  = 
ORIGINATOR     = 

OBJECT_NAME    = STARLINK-36523
OBJECT_ID      = 2026-008R
CENTER_NAME    = EARTH
REF_FRAME      = TEME
TIME_SYSTEM    = UTC
MEAN_ELEMENT_THEORY = SGP/SGP4

EPOCH          = 2026-02-12T04:00:03.000096
MEAN_MOTION    = 15.41174405
ECCENTRICITY   = .0001192
INCLINATION    = 42.9999
RA_OF_ASC_NODE = 349.8406
ARG_OF_PERICENTER = 259.2243
MEAN_ANOMALY   = 90.6897

EPHEMERIS_TYPE = 0
CLASSIFICATION_TYPE = U
NORAD_CAT_ID   = 67460
ELEMENT_SET_NO = 999
REV_AT_EPOCH   = 571
BSTAR          = -.5444E-1
MEAN_MOTION_DOT = -.2051111E-1
MEAN_MOTION_DDOT = 0

CCSDS_OMM_VERS = 2.0
CREATION_DATE  = 
ORIGINATOR     = 

OBJECT_NAME    = STARLINK-36522
OBJECT_ID      = 2026-008S
CENTER_NAME    = EARTH
REF_FRAME      = TEME
TIME_SYSTEM    = UTC
MEAN_ELEMENT_THEORY = SGP/SGP4

EPOCH          = 2026-02-11T23:47:06.649152
MEAN_MOTION    = 15.50570419
ECCENTRICITY   = .0001769
INCLINATION    = 42.9985
RA_OF_ASC_NODE = 351.0827
ARG_OF_PERICENTER = 285.0363
MEAN_ANOMALY   = 75.0301

EPHEMERIS_TYPE = 0
CLASSIFICATION_TYPE = U
NORAD_CAT_ID   = 67461
ELEMENT_SET_NO = 999
REV_AT_EPOCH   = 563
BSTAR          = .15226E-2
MEAN_MOTION_DOT = .89991E-3
MEAN_MOTION_DDOT = 0

CCSDS_OMM_VERS = 2.0
CREATION_DATE  = 
ORIGINATOR     = 

OBJECT_NAME    = STARLINK-36504
OBJECT_ID      = 2026-008T
CENTER_NAME    = EARTH
REF_FRAME      = TEME
TIME_SYSTEM    = UTC
MEAN_ELEMENT_THEORY = SGP/SGP4

EPOCH          = 2026-02-12T04:00:03.000096
MEAN_MOTION    = 15.42446798
ECCENTRICITY   = .0001181
INCLINATION    = 43.0000
RA_OF_ASC_NODE = 349.6280
ARG_OF_PERICENTER = 273.6753
MEAN_ANOMALY   = 162.4647

EPHEMERIS_TYPE = 0
CLASSIFICATION_TYPE = U
NORAD_CAT_ID   = 67462
ELEMENT_SET_NO = 999
REV_AT_EPOCH   = 571
BSTAR          = -.51529E-1
MEAN_MOTION_DOT = -.2029388E-1
MEAN_MOTION_DDOT = 0

CCSDS_OMM_VERS = 2.0
CREATION_DATE  = 
ORIGINATOR     = 

OBJECT_NAME    = STARLINK-36505
OBJECT_ID      = 2026-008U
CENTER_NAME    = EARTH
REF_FRAME      = TEME
TIME_SYSTEM    = UTC
MEAN_ELEMENT_THEORY = SGP/SGP4

EPOCH          = 2026-02-12T04:00:03.000096
MEAN_MOTION    = 15.47971253
ECCENTRICITY   = .0001479
INCLINATION    = 43.0002
RA_OF_ASC_NODE = 349.6687
ARG_OF_PERICENTER = 273.6373
MEAN_ANOMALY   = 146.5208

EPHEMERIS_TYPE = 0
CLASSIFICATION_TYPE = U
NORAD_CAT_ID   = 67463
ELEMENT_SET_NO = 999
REV_AT_EPOCH   = 569
BSTAR          = -.43021E-1
MEAN_MOTION_DOT = -.2048762E-1
MEAN_MOTION_DDOT = 0

CCSDS_OMM_VERS = 2.0
CREATION_DATE  = 
ORIGINATOR     = 

OBJECT_NAME    = STARLINK-36421
OBJECT_ID      = 2026-008V
CENTER_NAME    = EARTH
REF_FRAME      = TEME
TIME_SYSTEM    = UTC
MEAN_ELEMENT_THEORY = SGP/SGP4

EPOCH          = 2026-02-12T04:24:31.442400
MEAN_MOTION    = 15.50578884
ECCENTRICITY   = .0001245
INCLINATION    = 42.9994
RA_OF_ASC_NODE = 349.9495
ARG_OF_PERICENTER = 270.2791
MEAN_ANOMALY   = 89.7926

EPHEMERIS_TYPE = 0
CLASSIFICATION_TYPE = U
NORAD_CAT_ID   = 67464
ELEMENT_SET_NO = 999
REV_AT_EPOCH   = 566
BSTAR          = .15803E-2
MEAN_MOTION_DOT = .93482E-3
MEAN_MOTION_DDOT = 0

CCSDS_OMM_VERS = 2.0
CREATION_DATE  = 
ORIGINATOR     = 

OBJECT_NAME    = STARLINK-36437
OBJECT_ID      = 2026-008W
CENTER_NAME    = EARTH
REF_FRAME      = TEME
TIME_SYSTEM    = UTC
MEAN_ELEMENT_THEORY = SGP/SGP4

EPOCH          = 2026-02-12T00:00:01.999296
MEAN_MOTION    = 15.51014619
ECCENTRICITY   = .0000991
INCLINATION    = 43.0001
RA_OF_ASC_NODE = 350.6065
ARG_OF_PERICENTER = 272.3499
MEAN_ANOMALY   = 310.3367

EPHEMERIS_TYPE = 0
CLASSIFICATION_TYPE = U
NORAD_CAT_ID   = 67465
ELEMENT_SET_NO = 999
REV_AT_EPOCH   = 566
BSTAR          = -.33968E-1
MEAN_MOTION_DOT = -.179592E-1
MEAN_MOTION_DDOT = 0

CCSDS_OMM_VERS = 2.0
CREATION_DATE  = 
ORIGINATOR     = 

OBJECT_NAME    = STARLINK-36520
OBJECT_ID      = 2026-008X
CENTER_NAME    = EARTH
REF_FRAME      = TEME
TIME_SYSTEM    = UTC
MEAN_ELEMENT_THEORY = SGP/SGP4

EPOCH          = 2026-02-12T04:00:03.000096
MEAN_MOTION    = 15.41573298
ECCENTRICITY   = .0001426
INCLINATION    = 43.0005
RA_OF_ASC_NODE = 349.9030
ARG_OF_PERICENTER = 250.2700
MEAN_ANOMALY   = 73.9631

EPHEMERIS_TYPE = 0
CLASSIFICATION_TYPE = U
NORAD_CAT_ID   = 67466
ELEMENT_SET_NO = 999
REV_AT_EPOCH   = 569
BSTAR          = -.53481E-1
MEAN_MOTION_DOT = -.2043324E-1
MEAN_MOTION_DDOT = 0

CCSDS_OMM_VERS = 2.0
CREATION_DATE  = 
ORIGINATOR     = 

OBJECT_NAME    = STARLINK-36425
OBJECT_ID      = 2026-008Y
CENTER_NAME    = EARTH
REF_FRAME      = TEME
TIME_SYSTEM    = UTC
MEAN_ELEMENT_THEORY = SGP/SGP4

EPOCH          = 2026-02-11T05:30:08.891712
MEAN_MOTION    = 15.50668171
ECCENTRICITY   = .00028801
INCLINATION    = 43.0009
RA_OF_ASC_NODE = 355.6901
ARG_OF_PERICENTER = 249.0503
MEAN_ANOMALY   = 111.0049

EPHEMERIS_TYPE = 0
CLASSIFICATION_TYPE = U
NORAD_CAT_ID   = 67467
ELEMENT_SET_NO = 999
REV_AT_EPOCH   = 551
BSTAR          = .19027554E-2
MEAN_MOTION_DOT = .113281E-2
MEAN_MOTION_DDOT = 0

CCSDS_OMM_VERS = 2.0
CREATION_DATE  = 
ORIGINATOR     = 

OBJECT_NAME    = STARLINK-36414
OBJECT_ID      = 2026-008Z
CENTER_NAME    = EARTH
REF_FRAME      = TEME
TIME_SYSTEM    = UTC
MEAN_ELEMENT_THEORY = SGP/SGP4

EPOCH          = 2026-02-11T06:02:53.856672
MEAN_MOTION    = 15.50624812
ECCENTRICITY   = .00016197
INCLINATION    = 43.0000
RA_OF_ASC_NODE = 354.9811
ARG_OF_PERICENTER = 288.2757
MEAN_ANOMALY   = 71.7927

EPHEMERIS_TYPE = 0
CLASSIFICATION_TYPE = U
NORAD_CAT_ID   = 67468
ELEMENT_SET_NO = 999
REV_AT_EPOCH   = 552
BSTAR          = .24892734E-2
MEAN_MOTION_DOT = .148743E-2
MEAN_MOTION_DDOT = 0

