STARLINK-36529          
1 67457U 26008N   26043.16670139 -.02035519  00000+0 -48014-1 0  9997
2 67457  43.0000 349.8411 0001278 259.6066  90.4457 15.44612960  5697
STARLINK-36528          
1 67458U 26008P   26043.16670139 -.02069298  00000+0 -42229-1 0  9991
2 67458  42.9998 349.4841 0001012 275.6352 219.2910 15.48817562  5714
STARLINK-36546          
1 67459U 26008Q   26043.16670139 -.02036094  00000+0 -56133-1 0  9999
2 67459  43.0006 349.8983 0001144 262.5792  63.9200 15.40013418  5690
STARLINK-36523          
1 67460U 26008R   26043.16670139 -.02051111  00000+0 -54440-1 0  9997
2 67460  42.9999 349.8406 0001192 259.2243  90.6897 15.41174405  5715
STARLINK-36522          
1 67461U 26008S   26042.99104918  .00089991  00000+0  15226-2 0  9998
2 67461  42.9985 351.0827 0001769 285.0363  75.0301 15.50570419  5636
STARLINK-36504          
1 67462U 26008T   26043.16670139 -.02029388  00000+0 -51529-1 0  9995
2 67462  43.0000 349.6280 0001181 273.6753 162.4647 15.42446798  5713
STARLINK-36505          
1 67463U 26008U   26043.16670139 -.02048762  00000+0 -43021-1 0  9991
2 67463  43.0002 349.6687 0001479 273.6373 146.5208 15.47971253  5692
STARLINK-36421          
1 67464U 26008V   26043.18369725  .00093482  00000+0  15803-2 0  9993
2 67464  42.9994 349.9495 0001245 270.2791  89.7926 15.50578884  5668
STARLINK-36437          
1 67465U 26008W   26043.00002314 -.01795920  00000+0 -33968-1 0  9993
2 67465  43.0001 350.6065 0000991 272.3499 310.3367 15.51014619  5661
STARLINK-36520          
1 67466U 26008X   26043.16670139 -.02043324  00000+0 -53481-1 0  9994
2 67466  43.0005 349.9030 0001426 250.2700  73.9631 15.41573298  5694
STARLINK-36425          
1 67467U 26008Y   26042.22926958  .00113281  00000+0  19028-2 0  9990
2 67467  43.0009 355.6901 0002880 249.0503 111.0049 15.50668171  5515
STARLINK-36414          
1 67468U 26008Z   26042.25201223  .00148743  00000+0  24893-2 0  9992
2 67468  43.0000 354.9811 0001619 288.2757  71.7927 15.50624812  5526
